IRIDIUM 112             
1 41925U 17003J   24301.56618206  .00000776  00000+0  26983-3 0  9996
2 41925  86.3973 338.0610 0001871  98.3511 261.7897 14.34220668407618
IRIDIUM 111             
1 41926U 17003K   24301.48372581  .00000924  00000+0  32281-3 0  9994
2 41926  86.3978 338.1511 0002169  96.8910 263.2533 14.34227761407583
IRIDIUM 113             
1 42803U 17039A   24301.88230045  .00001233  00000+0  43318-3 0  9997
2 42803  86.4030 211.7336 0001921  88.2008 271.9408 14.34223007385577
IRIDIUM 123             
1 42804U 17039B   24301.78424572  .00000019  00000+0 -31632-6 0  9998
2 42804  86.3969 243.2336 0002391  86.3231 273.8238 14.34218402384324
IRIDIUM 120             
1 42805U 17039C   24301.80618858  .00000119  00000+0  35291-4 0  9997
2 42805  86.4021 211.6254 0002153  77.4695 282.6741 14.34221701385553
IRIDIUM 115             
1 42806U 17039D   24302.11072933  .00001812  00000+0  53268-3 0  9995
2 42806  86.4555 211.5427 0002328  85.7518 274.3949 14.43284410388149
IRIDIUM 118             
1 42807U 17039E   24302.09502955  .00001181  00000+0  41448-3 0  9991
2 42807  86.3971 243.1045 0002104  81.3366 278.8068 14.34214470384374
IRIDIUM 117             
1 42808U 17039F   24301.76521568  .00000088  00000+0  24422-4 0  9995
2 42808  86.3965 243.2058 0002288  85.0870 275.0587 14.34213397384346
